{
"type": "FeatureCollection",
"name": "populated_places",
"crs": { "type": "name", "properties": { "name": "urn:ogc:def:crs:OGC:1.3:CRS84" } },
"features": [
{ "type": "Feature", "properties": { "SCALERANK": 8, "NATSCALE": 10, "LABELRANK": 2, "FEATURECLA": "Populated place", "NAME": "Сергиев Посад", "NAMEPAR": null, "NAMEALT": null, "NAMEASCII": "Sergiyev Posad", "ADM0CAP": 0, "CAPIN": null, "WORLDCITY": 0, "MEGACITY": 0, "SOV0NAME": "Russia", "SOV_A3": "RUS", "ADM0NAME": "Russia", "ADM0_A3": "RUS", "ADM1NAME": "Moskovsskaya", "ISO_A2": "RU", "NOTE": null, "LATITUDE": 56.33001, "LONGITUDE": 38.170011, "POP_MAX": 109252, "POP_MIN": 104843, "POP_OTHER": 3989, "RANK_MAX": 9, "RANK_MIN": 9, "MEGANAME": null, "LS_NAME": "Sergiyev Posad", "MAX_POP10": 104843, "MAX_POP20": 0, "MAX_POP50": 0, "MAX_POP300": 0, "MAX_POP310": 0, "MAX_NATSCA": 10, "MIN_AREAKM": 47, "MAX_AREAKM": 47, "MIN_AREAMI": 18, "MAX_AREAMI": 18, "MIN_PERKM": 57, "MAX_PERKM": 57, "MIN_PERMI": 35, "MAX_PERMI": 35, "MIN_BBXMIN": 38.05, "MAX_BBXMIN": 38.05, "MIN_BBXMAX": 38.225, "MAX_BBXMAX": 38.225, "MIN_BBYMIN": 56.258333, "MAX_BBYMIN": 56.258333, "MIN_BBYMAX": 56.341667, "MAX_BBYMAX": 56.341667, "MEAN_BBXC": 38.14053, "MEAN_BBYC": 56.296254, "TIMEZONE": "Europe/Moscow", "UN_FID": 0, "POP1950": 0, "POP1955": 0, "POP1960": 0, "POP1965": 0, "POP1970": 0, "POP1975": 0, "POP1980": 0, "POP1985": 0, "POP1990": 0, "POP1995": 0, "POP2000": 0, "POP2005": 0, "POP2010": 0, "POP2015": 0, "POP2020": 0, "POP2025": 0, "POP2050": 0, "MIN_ZOOM": 7.0, "WIKIDATAID": "Q193722", "WOF_ID": 102002919, "CAPALT": 0, "NAME_EN": "Sergiyev Posad", "NAME_DE": "Sergijew Possad", "NAME_ES": "Sérguiev Posad", "NAME_FR": "Serguiev Possad", "NAME_PT": "Serguiev Possad", "NAME_RU": "Сергиев Посад", "NAME_ZH": "谢尔吉耶夫镇", "LABEL": null, "NAME_AR": "سرغيايف بوساد", "NAME_BN": "সেরজিয়েভ পোসাড", "NAME_EL": "Σέργκιεφ Ποσάντ", "NAME_HI": "सेर्गियेव पोसाद", "NAME_HU": "Szergijev Poszad", "NAME_ID": "Sergiyev Posad", "NAME_IT": "Sergiev Posad", "NAME_JA": "セルギエフ・ポサード", "NAME_KO": "세르기예프포사트", "NAME_NL": "Sergiev Posad", "NAME_PL": "Siergijew Posad", "NAME_SV": "Sergijev Posad", "NAME_TR": "Sergiyev Posad", "NAME_VI": "Sergiyev Posad", "NE_ID": 1159128635, "NAME_FA": "سرگییف پوساد", "NAME_HE": "סרגייב פוסאד", "NAME_UK": "Сергієв Посад", "NAME_UR": "سیرجییو پوساد", "NAME_ZHT": "謝爾吉耶夫鎮", "GEONAMESID": 496638, "FCLASS_ISO": null, "FCLASS_US": null, "FCLASS_FR": null, "FCLASS_RU": null, "FCLASS_ES": null, "FCLASS_CN": null, "FCLASS_TW": null, "FCLASS_IN": null, "FCLASS_NP": null, "FCLASS_PK": null, "FCLASS_DE": null, "FCLASS_GB": null, "FCLASS_BR": null, "FCLASS_IL": null, "FCLASS_PS": null, "FCLASS_SA": null, "FCLASS_EG": null, "FCLASS_MA": null, "FCLASS_PT": null, "FCLASS_AR": null, "FCLASS_JP": null, "FCLASS_KO": null, "FCLASS_VN": null, "FCLASS_TR": null, "FCLASS_ID": null, "FCLASS_PL": null, "FCLASS_GR": null, "FCLASS_IT": null, "FCLASS_NL": null, "FCLASS_SE": null, "FCLASS_BD": null, "FCLASS_UA": null, "FCLASS_TLC": null }, "geometry": { "type": "Point", "coordinates": [ 38.1700109, 56.33001 ] } },
{ "type": "Feature", "properties": { "SCALERANK": 7, "NATSCALE": 20, "LABELRANK": 2, "FEATURECLA": "Populated place", "NAME": "Солнечногорск", "NAMEPAR": null, "NAMEALT": null, "NAMEASCII": "Solnechnogorsk", "ADM0CAP": 0, "CAPIN": null, "WORLDCITY": 0, "MEGACITY": 0, "SOV0NAME": "Russia", "SOV_A3": "RUS", "ADM0NAME": "Russia", "ADM0_A3": "RUS", "ADM1NAME": "Moskovsskaya", "ISO_A2": "RU", "NOTE": null, "LATITUDE": 56.180691, "LONGITUDE": 36.980885, "POP_MAX": 58891, "POP_MIN": 37195, "POP_OTHER": 36949, "RANK_MAX": 8, "RANK_MIN": 7, "MEGANAME": null, "LS_NAME": "Solnechnogorsk", "MAX_POP10": 37195, "MAX_POP20": 37195, "MAX_POP50": 0, "MAX_POP300": 0, "MAX_POP310": 0, "MAX_NATSCA": 20, "MIN_AREAKM": 14, "MAX_AREAKM": 14, "MIN_AREAMI": 6, "MAX_AREAMI": 6, "MIN_PERKM": 23, "MAX_PERKM": 23, "MIN_PERMI": 14, "MAX_PERMI": 14, "MIN_BBXMIN": 36.941667, "MAX_BBXMIN": 36.941667, "MIN_BBXMAX": 37.008333, "MAX_BBXMAX": 37.008333, "MIN_BBYMIN": 56.158333, "MAX_BBYMIN": 56.158333, "MIN_BBYMAX": 56.208333, "MAX_BBYMAX": 56.208333, "MEAN_BBXC": 36.973889, "MEAN_BBYC": 56.181389, "TIMEZONE": "Europe/Moscow", "UN_FID": 0, "POP1950": 0, "POP1955": 0, "POP1960": 0, "POP1965": 0, "POP1970": 0, "POP1975": 0, "POP1980": 0, "POP1985": 0, "POP1990": 0, "POP1995": 0, "POP2000": 0, "POP2005": 0, "POP2010": 0, "POP2015": 0, "POP2020": 0, "POP2025": 0, "POP2050": 0, "MIN_ZOOM": 6.7, "WIKIDATAID": "Q196386", "WOF_ID": 102002979, "CAPALT": 0, "NAME_EN": "Solnechnogorsk", "NAME_DE": "Solnetschnogorsk", "NAME_ES": "Solnechnogorsk", "NAME_FR": "Solnetchnogorsk", "NAME_PT": "Solnechnogorsk", "NAME_RU": "Солнечногорск", "NAME_ZH": "索尔涅奇诺戈尔斯克", "LABEL": null, "NAME_AR": "سولنتشنوغورسك", "NAME_BN": "সোলেনেচেনোগর্স্ক", "NAME_EL": "Σολνετσνογόρσκ", "NAME_HI": "सोलनेक्नोगोर्स्क", "NAME_HU": "Szolnyechnogorszk", "NAME_ID": "Solnechnogorsk", "NAME_IT": "Solnečnogorsk", "NAME_JA": "ソルネチノゴルスク", "NAME_KO": "솔네츠노고르스크", "NAME_NL": "Solnetsjnogorsk", "NAME_PL": "Sołniecznogorsk", "NAME_SV": "Solnetsjnogorsk", "NAME_TR": "Solneçnogorsk", "NAME_VI": "Solnechnogorsk", "NE_ID": 1159137283, "NAME_FA": "سولنچنوگورسک", "NAME_HE": "סולנצ'נוגורסק", "NAME_UK": "Солнечногорськ", "NAME_UR": "سولنیچنوگورسک", "NAME_ZHT": "索爾涅奇諾戈爾斯克", "GEONAMESID": 490996, "FCLASS_ISO": null, "FCLASS_US": null, "FCLASS_FR": null, "FCLASS_RU": null, "FCLASS_ES": null, "FCLASS_CN": null, "FCLASS_TW": null, "FCLASS_IN": null, "FCLASS_NP": null, "FCLASS_PK": null, "FCLASS_DE": null, "FCLASS_GB": null, "FCLASS_BR": null, "FCLASS_IL": null, "FCLASS_PS": null, "FCLASS_SA": null, "FCLASS_EG": null, "FCLASS_MA": null, "FCLASS_PT": null, "FCLASS_AR": null, "FCLASS_JP": null, "FCLASS_KO": null, "FCLASS_VN": null, "FCLASS_TR": null, "FCLASS_ID": null, "FCLASS_PL": null, "FCLASS_GR": null, "FCLASS_IT": null, "FCLASS_NL": null, "FCLASS_SE": null, "FCLASS_BD": null, "FCLASS_UA": null, "FCLASS_TLC": null }, "geometry": { "type": "Point", "coordinates": [ 36.9808846, 56.1806909 ] } },
{ "type": "Feature", "properties": { "SCALERANK": 7, "NATSCALE": 20, "LABELRANK": 2, "FEATURECLA": "Populated place", "NAME": "Ногинск", "NAMEPAR": null, "NAMEALT": null, "NAMEASCII": "Noginsk", "ADM0CAP": 0, "CAPIN": null, "WORLDCITY": 0, "MEGACITY": 0, "SOV0NAME": "Russia", "SOV_A3": "RUS", "ADM0NAME": "Russia", "ADM0_A3": "RUS", "ADM1NAME": "Moskovsskaya", "ISO_A2": "RU", "NOTE": null, "LATITUDE": 55.870426, "LONGITUDE": 38.480018, "POP_MAX": 229731, "POP_MIN": 115979, "POP_OTHER": 255157, "RANK_MAX": 10, "RANK_MIN": 9, "MEGANAME": null, "LS_NAME": "Noginsk", "MAX_POP10": 229731, "MAX_POP20": 229731, "MAX_POP50": 0, "MAX_POP300": 0, "MAX_POP310": 0, "MAX_NATSCA": 20, "MIN_AREAKM": 79, "MAX_AREAKM": 79, "MIN_AREAMI": 31, "MAX_AREAMI": 31, "MIN_PERKM": 84, "MAX_PERKM": 84, "MIN_PERMI": 52, "MAX_PERMI": 52, "MIN_BBXMIN": 38.333333, "MAX_BBXMIN": 38.333333, "MIN_BBXMAX": 38.516667, "MAX_BBXMAX": 38.516667, "MIN_BBYMIN": 55.758333, "MAX_BBYMIN": 55.758333, "MIN_BBYMAX": 55.908333, "MAX_BBYMAX": 55.908333, "MEAN_BBXC": 38.446697, "MEAN_BBYC": 55.832419, "TIMEZONE": "Europe/Moscow", "UN_FID": 0, "POP1950": 0, "POP1955": 0, "POP1960": 0, "POP1965": 0, "POP1970": 0, "POP1975": 0, "POP1980": 0, "POP1985": 0, "POP1990": 0, "POP1995": 0, "POP2000": 0, "POP2005": 0, "POP2010": 0, "POP2015": 0, "POP2020": 0, "POP2025": 0, "POP2050": 0, "MIN_ZOOM": 6.7, "WIKIDATAID": "Q175480", "WOF_ID": 890482307, "CAPALT": 0, "NAME_EN": "Noginsk", "NAME_DE": "Noginsk", "NAME_ES": "Noginsk", "NAME_FR": "Noguinsk", "NAME_PT": "Noguinsk", "NAME_RU": "Ногинск", "NAME_ZH": "诺金斯克", "LABEL": null, "NAME_AR": "نوجينسك", "NAME_BN": "নজিনস্ক", "NAME_EL": "Νογκίνσκ", "NAME_HI": "नोगिनसक", "NAME_HU": "Noginszk", "NAME_ID": "Noginsk", "NAME_IT": "Noginsk", "NAME_JA": "ノギンスク", "NAME_KO": "노긴스크", "NAME_NL": "Noginsk", "NAME_PL": "Nogińsk", "NAME_SV": "Noginsk", "NAME_TR": "Noginsk", "NAME_VI": "Noginsk", "NE_ID": 1159137287, "NAME_FA": "نوگینسک", "NAME_HE": "נוגינסק", "NAME_UK": "Ногінськ", "NAME_UR": "نوجینسک", "NAME_ZHT": "諾金斯克", "GEONAMESID": 520068, "FCLASS_ISO": null, "FCLASS_US": null, "FCLASS_FR": null, "FCLASS_RU": null, "FCLASS_ES": null, "FCLASS_CN": null, "FCLASS_TW": null, "FCLASS_IN": null, "FCLASS_NP": null, "FCLASS_PK": null, "FCLASS_DE": null, "FCLASS_GB": null, "FCLASS_BR": null, "FCLASS_IL": null, "FCLASS_PS": null, "FCLASS_SA": null, "FCLASS_EG": null, "FCLASS_MA": null, "FCLASS_PT": null, "FCLASS_AR": null, "FCLASS_JP": null, "FCLASS_KO": null, "FCLASS_VN": null, "FCLASS_TR": null, "FCLASS_ID": null, "FCLASS_PL": null, "FCLASS_GR": null, "FCLASS_IT": null, "FCLASS_NL": null, "FCLASS_SE": null, "FCLASS_BD": null, "FCLASS_UA": null, "FCLASS_TLC": null }, "geometry": { "type": "Point", "coordinates": [ 38.4800179, 55.8704256 ] } },
{ "type": "Feature", "properties": { "SCALERANK": 8, "NATSCALE": 10, "LABELRANK": 2, "FEATURECLA": "Populated place", "NAME": "Орехово-Зуево", "NAMEPAR": null, "NAMEALT": null, "NAMEASCII": "Orekhovo-Zuevo", "ADM0CAP": 0, "CAPIN": null, "WORLDCITY": 0, "MEGACITY": 0, "SOV0NAME": "Russia", "SOV_A3": "RUS", "ADM0NAME": "Russia", "ADM0_A3": "RUS", "ADM1NAME": "Moskovsskaya", "ISO_A2": "RU", "NOTE": null, "LATITUDE": 55.820015, "LONGITUDE": 38.979987, "POP_MAX": 140247, "POP_MIN": 120000, "POP_OTHER": 136265, "RANK_MAX": 9, "RANK_MIN": 9, "MEGANAME": null, "LS_NAME": "Orekhovo-Zuevo", "MAX_POP10": 140247, "MAX_POP20": 0, "MAX_POP50": 0, "MAX_POP300": 0, "MAX_POP310": 0, "MAX_NATSCA": 10, "MIN_AREAKM": 31, "MAX_AREAKM": 31, "MIN_AREAMI": 12, "MAX_AREAMI": 12, "MIN_PERKM": 37, "MAX_PERKM": 37, "MIN_PERMI": 23, "MAX_PERMI": 23, "MIN_BBXMIN": 38.916667, "MAX_BBXMIN": 38.916667, "MIN_BBXMAX": 39.033333, "MAX_BBXMAX": 39.033333, "MIN_BBYMIN": 55.783333, "MAX_BBYMIN": 55.783333, "MIN_BBYMAX": 55.85, "MAX_BBYMAX": 55.85, "MEAN_BBXC": 38.975781, "MEAN_BBYC": 55.810807, "TIMEZONE": "Europe/Moscow", "UN_FID": 0, "POP1950": 0, "POP1955": 0, "POP1960": 0, "POP1965": 0, "POP1970": 0, "POP1975": 0, "POP1980": 0, "POP1985": 0, "POP1990": 0, "POP1995": 0, "POP2000": 0, "POP2005": 0, "POP2010": 0, "POP2015": 0, "POP2020": 0, "POP2025": 0, "POP2050": 0, "MIN_ZOOM": 7.0, "WIKIDATAID": "Q176636", "WOF_ID": 102003145, "CAPALT": 0, "NAME_EN": "Orekhovo-Zuyevo", "NAME_DE": "Orechowo-Sujewo", "NAME_ES": "Oréjovo-Zúyevo", "NAME_FR": "Orekhovo-Zouïevo", "NAME_PT": "Orekhovo-Zuyevo", "NAME_RU": "Орехово-Зуево", "NAME_ZH": "奥列霍沃-祖耶沃", "LABEL": null, "NAME_AR": "أوريخوفو-زويفو", "NAME_BN": "ওরেখভো-যুয়েভ", "NAME_EL": "Ορέχοβο-Ζούγεβο", "NAME_HI": "ओरेखोवो-ज़ुयेवो", "NAME_HU": "Orekhovo-Zuevo", "NAME_ID": "Orekhovo-Zuyevo", "NAME_IT": "Orechovo-Zuevo", "NAME_JA": "オレホヴォ＝ズエヴォ", "NAME_KO": "오레호보주예보", "NAME_NL": "Orechovo-Zoejevo", "NAME_PL": "Oriechowo-Zujewo", "NAME_SV": "Orechovo-Zujevo", "NAME_TR": "Orehovo-Zuyevo", "NAME_VI": "Orekhovo-Zuyevo", "NE_ID": 1159128623, "NAME_FA": "اورخوفو-زویفو", "NAME_HE": "אורחובו זויבו", "NAME_UK": "Орєхово-Зуєво", "NAME_UR": "وریخووو-زوییوو", "NAME_ZHT": "奧列霍沃-祖耶沃", "GEONAMESID": 515024, "FCLASS_ISO": null, "FCLASS_US": null, "FCLASS_FR": null, "FCLASS_RU": null, "FCLASS_ES": null, "FCLASS_CN": null, "FCLASS_TW": null, "FCLASS_IN": null, "FCLASS_NP": null, "FCLASS_PK": null, "FCLASS_DE": null, "FCLASS_GB": null, "FCLASS_BR": null, "FCLASS_IL": null, "FCLASS_PS": null, "FCLASS_SA": null, "FCLASS_EG": null, "FCLASS_MA": null, "FCLASS_PT": null, "FCLASS_AR": null, "FCLASS_JP": null, "FCLASS_KO": null, "FCLASS_VN": null, "FCLASS_TR": null, "FCLASS_ID": null, "FCLASS_PL": null, "FCLASS_GR": null, "FCLASS_IT": null, "FCLASS_NL": null, "FCLASS_SE": null, "FCLASS_BD": null, "FCLASS_UA": null, "FCLASS_TLC": null }, "geometry": { "type": "Point", "coordinates": [ 38.9799873, 55.8200153 ] } },
{ "type": "Feature", "properties": { "SCALERANK": 7, "NATSCALE": 20, "LABELRANK": 2, "FEATURECLA": "Populated place", "NAME": "Подольск", "NAMEPAR": null, "NAMEALT": null, "NAMEASCII": "Podolsk", "ADM0CAP": 0, "CAPIN": null, "WORLDCITY": 0, "MEGACITY": 0, "SOV0NAME": "Russia", "SOV_A3": "RUS", "ADM0NAME": "Russia", "ADM0_A3": "RUS", "ADM1NAME": "Moskovsskaya", "ISO_A2": "RU", "NOTE": null, "LATITUDE": 55.38043, "LONGITUDE": 37.529947, "POP_MAX": 320635, "POP_MIN": 179400, "POP_OTHER": 315911, "RANK_MAX": 10, "RANK_MIN": 9, "MEGANAME": null, "LS_NAME": "Podolsk", "MAX_POP10": 320635, "MAX_POP20": 320635, "MAX_POP50": 0, "MAX_POP300": 0, "MAX_POP310": 0, "MAX_NATSCA": 20, "MIN_AREAKM": 94, "MAX_AREAKM": 94, "MIN_AREAMI": 36, "MAX_AREAMI": 36, "MIN_PERKM": 128, "MAX_PERKM": 128, "MIN_PERMI": 80, "MAX_PERMI": 80, "MIN_BBXMIN": 37.475, "MAX_BBXMIN": 37.475, "MIN_BBXMAX": 37.608333, "MAX_BBXMAX": 37.608333, "MIN_BBYMIN": 55.341667, "MAX_BBYMIN": 55.341667, "MIN_BBYMAX": 55.569416, "MAX_BBYMAX": 55.569416, "MEAN_BBXC": 37.54608, "MEAN_BBYC": 55.455848, "TIMEZONE": "Europe/Moscow", "UN_FID": 0, "POP1950": 0, "POP1955": 0, "POP1960": 0, "POP1965": 0, "POP1970": 0, "POP1975": 0, "POP1980": 0, "POP1985": 0, "POP1990": 0, "POP1995": 0, "POP2000": 0, "POP2005": 0, "POP2010": 0, "POP2015": 0, "POP2020": 0, "POP2025": 0, "POP2050": 0, "MIN_ZOOM": 6.7, "WIKIDATAID": "Q19520", "WOF_ID": 102003365, "CAPALT": 0, "NAME_EN": "Podolsk", "NAME_DE": "Podolsk", "NAME_ES": "Podolsk", "NAME_FR": "Podolsk", "NAME_PT": "Podolsk", "NAME_RU": "Подольск", "NAME_ZH": "波多利斯克", "LABEL": null, "NAME_AR": "بودولسك", "NAME_BN": "পোডলস্ক", "NAME_EL": "Ποντόλσκ", "NAME_HI": "पोदोल्स्क", "NAME_HU": "Podolszk", "NAME_ID": "Podolsk", "NAME_IT": "Podol'sk", "NAME_JA": "ポドリスク", "NAME_KO": "포돌스크", "NAME_NL": "Podolsk", "NAME_PL": "Podolsk", "NAME_SV": "Podolsk", "NAME_TR": "Podolsk", "NAME_VI": "Podolsk", "NE_ID": 1159137277, "NAME_FA": "پودولسک", "NAME_HE": "פודולסק", "NAME_UK": "Подольськ", "NAME_UR": "پوڈولسک", "NAME_ZHT": "波多利斯克", "GEONAMESID": 508101, "FCLASS_ISO": null, "FCLASS_US": null, "FCLASS_FR": null, "FCLASS_RU": null, "FCLASS_ES": null, "FCLASS_CN": null, "FCLASS_TW": null, "FCLASS_IN": null, "FCLASS_NP": null, "FCLASS_PK": null, "FCLASS_DE": null, "FCLASS_GB": null, "FCLASS_BR": null, "FCLASS_IL": null, "FCLASS_PS": null, "FCLASS_SA": null, "FCLASS_EG": null, "FCLASS_MA": null, "FCLASS_PT": null, "FCLASS_AR": null, "FCLASS_JP": null, "FCLASS_KO": null, "FCLASS_VN": null, "FCLASS_TR": null, "FCLASS_ID": null, "FCLASS_PL": null, "FCLASS_GR": null, "FCLASS_IT": null, "FCLASS_NL": null, "FCLASS_SE": null, "FCLASS_BD": null, "FCLASS_UA": null, "FCLASS_TLC": null }, "geometry": { "type": "Point", "coordinates": [ 37.5299467, 55.3804297 ] } },
{ "type": "Feature", "properties": { "SCALERANK": 8, "NATSCALE": 10, "LABELRANK": 2, "FEATURECLA": "Populated place", "NAME": "Коломна", "NAMEPAR": null, "NAMEALT": null, "NAMEASCII": "Kolomna", "ADM0CAP": 0, "CAPIN": null, "WORLDCITY": 0, "MEGACITY": 0, "SOV0NAME": "Russia", "SOV_A3": "RUS", "ADM0NAME": "Russia", "ADM0_A3": "RUS", "ADM1NAME": "Moskovsskaya", "ISO_A2": "RU", "NOTE": null, "LATITUDE": 55.079983, "LONGITUDE": 38.784961, "POP_MAX": 147690, "POP_MIN": 112959, "POP_OTHER": 85114, "RANK_MAX": 9, "RANK_MIN": 9, "MEGANAME": null, "LS_NAME": "Kolomna", "MAX_POP10": 112959, "MAX_POP20": 0, "MAX_POP50": 0, "MAX_POP300": 0, "MAX_POP310": 0, "MAX_NATSCA": 10, "MIN_AREAKM": 44, "MAX_AREAKM": 44, "MIN_AREAMI": 17, "MAX_AREAMI": 17, "MIN_PERKM": 65, "MAX_PERKM": 65, "MIN_PERMI": 41, "MAX_PERMI": 41, "MIN_BBXMIN": 38.716667, "MAX_BBXMIN": 38.716667, "MIN_BBXMAX": 38.875, "MAX_BBXMAX": 38.875, "MIN_BBYMIN": 55.041667, "MAX_BBYMIN": 55.041667, "MIN_BBYMAX": 55.133333, "MAX_BBYMAX": 55.133333, "MEAN_BBXC": 38.798736, "MEAN_BBYC": 55.083848, "TIMEZONE": "Europe/Moscow", "UN_FID": 0, "POP1950": 0, "POP1955": 0, "POP1960": 0, "POP1965": 0, "POP1970": 0, "POP1975": 0, "POP1980": 0, "POP1985": 0, "POP1990": 0, "POP1995": 0, "POP2000": 0, "POP2005": 0, "POP2010": 0, "POP2015": 0, "POP2020": 0, "POP2025": 0, "POP2050": 0, "MIN_ZOOM": 7.0, "WIKIDATAID": "Q133026", "WOF_ID": 102003529, "CAPALT": 0, "NAME_EN": "Kolomna", "NAME_DE": "Kolomna", "NAME_ES": "Kolomna", "NAME_FR": "Kolomna", "NAME_PT": "Kolomna", "NAME_RU": "Коломна", "NAME_ZH": "科洛姆纳", "LABEL": null, "NAME_AR": "كولومنا", "NAME_BN": "কোলোম্না", "NAME_EL": "Κολόμνα", "NAME_HI": "कोलोम्ना", "NAME_HU": "Kolomna", "NAME_ID": "Kolomna", "NAME_IT": "Kolomna", "NAME_JA": "コロムナ", "NAME_KO": "콜롬나", "NAME_NL": "Kolomna", "NAME_PL": "Kołomna", "NAME_SV": "Kolomna", "NAME_TR": "Kolomna", "NAME_VI": "Kolomna", "NE_ID": 1159128643, "NAME_FA": "کولومنا", "NAME_HE": "קולומנה", "NAME_UK": "Коломна", "NAME_UR": "کولومنا", "NAME_ZHT": "科洛姆納", "GEONAMESID": 546230, "FCLASS_ISO": null, "FCLASS_US": null, "FCLASS_FR": null, "FCLASS_RU": null, "FCLASS_ES": null, "FCLASS_CN": null, "FCLASS_TW": null, "FCLASS_IN": null, "FCLASS_NP": null, "FCLASS_PK": null, "FCLASS_DE": null, "FCLASS_GB": null, "FCLASS_BR": null, "FCLASS_IL": null, "FCLASS_PS": null, "FCLASS_SA": null, "FCLASS_EG": null, "FCLASS_MA": null, "FCLASS_PT": null, "FCLASS_AR": null, "FCLASS_JP": null, "FCLASS_KO": null, "FCLASS_VN": null, "FCLASS_TR": null, "FCLASS_ID": null, "FCLASS_PL": null, "FCLASS_GR": null, "FCLASS_IT": null, "FCLASS_NL": null, "FCLASS_SE": null, "FCLASS_BD": null, "FCLASS_UA": null, "FCLASS_TLC": null }, "geometry": { "type": "Point", "coordinates": [ 38.7849605, 55.0799829 ] } },
{ "type": "Feature", "properties": { "SCALERANK": 8, "NATSCALE": 10, "LABELRANK": 2, "FEATURECLA": "Populated place", "NAME": "Клин", "NAMEPAR": null, "NAMEALT": null, "NAMEASCII": "Klin", "ADM0CAP": 0, "CAPIN": null, "WORLDCITY": 0, "MEGACITY": 0, "SOV0NAME": "Russia", "SOV_A3": "RUS", "ADM0NAME": "Russia", "ADM0_A3": "RUS", "ADM1NAME": "Moskovsskaya", "ISO_A2": "RU", "NOTE": null, "LATITUDE": 56.343058, "LONGITUDE": 36.698731, "POP_MAX": 80778, "POP_MIN": 63664, "POP_OTHER": 63386, "RANK_MAX": 8, "RANK_MIN": 8, "MEGANAME": null, "LS_NAME": "Klin", "MAX_POP10": 63664, "MAX_POP20": 0, "MAX_POP50": 0, "MAX_POP300": 0, "MAX_POP310": 0, "MAX_NATSCA": 10, "MIN_AREAKM": 19, "MAX_AREAKM": 19, "MIN_AREAMI": 7, "MAX_AREAMI": 7, "MIN_PERKM": 36, "MAX_PERKM": 36, "MIN_PERMI": 22, "MAX_PERMI": 22, "MIN_BBXMIN": 36.675, "MAX_BBXMIN": 36.675, "MIN_BBXMAX": 36.775, "MAX_BBXMAX": 36.775, "MIN_BBYMIN": 56.308333, "MAX_BBYMIN": 56.308333, "MIN_BBYMAX": 56.358333, "MAX_BBYMAX": 56.358333, "MEAN_BBXC": 36.72703, "MEAN_BBYC": 56.33344, "TIMEZONE": "Europe/Moscow", "UN_FID": 0, "POP1950": 0, "POP1955": 0, "POP1960": 0, "POP1965": 0, "POP1970": 0, "POP1975": 0, "POP1980": 0, "POP1985": 0, "POP1990": 0, "POP1995": 0, "POP2000": 0, "POP2005": 0, "POP2010": 0, "POP2015": 0, "POP2020": 0, "POP2025": 0, "POP2050": 0, "MIN_ZOOM": 7.0, "WIKIDATAID": "Q153698", "WOF_ID": 102002903, "CAPALT": 0, "NAME_EN": "Klin", "NAME_DE": "Klin", "NAME_ES": "Klin", "NAME_FR": "Kline", "NAME_PT": "Klin", "NAME_RU": "Клин", "NAME_ZH": "克林", "LABEL": null, "NAME_AR": "كلين", "NAME_BN": "ক্লিন", "NAME_EL": "Κλιν", "NAME_HI": "क्लिन", "NAME_HU": "Klin", "NAME_ID": "Klin", "NAME_IT": "Klin", "NAME_JA": "クリン", "NAME_KO": "클린", "NAME_NL": "Klin", "NAME_PL": "Klin", "NAME_SV": "Klin", "NAME_TR": "Klin", "NAME_VI": "Klin", "NE_ID": 1159128629, "NAME_FA": "کلین", "NAME_HE": "קלין", "NAME_UK": "Клин", "NAME_UR": "کلن", "NAME_ZHT": "克林", "GEONAMESID": 547523, "FCLASS_ISO": null, "FCLASS_US": null, "FCLASS_FR": null, "FCLASS_RU": null, "FCLASS_ES": null, "FCLASS_CN": null, "FCLASS_TW": null, "FCLASS_IN": null, "FCLASS_NP": null, "FCLASS_PK": null, "FCLASS_DE": null, "FCLASS_GB": null, "FCLASS_BR": null, "FCLASS_IL": null, "FCLASS_PS": null, "FCLASS_SA": null, "FCLASS_EG": null, "FCLASS_MA": null, "FCLASS_PT": null, "FCLASS_AR": null, "FCLASS_JP": null, "FCLASS_KO": null, "FCLASS_VN": null, "FCLASS_TR": null, "FCLASS_ID": null, "FCLASS_PL": null, "FCLASS_GR": null, "FCLASS_IT": null, "FCLASS_NL": null, "FCLASS_SE": null, "FCLASS_BD": null, "FCLASS_UA": null, "FCLASS_TLC": null }, "geometry": { "type": "Point", "coordinates": [ 36.6987312, 56.3430583 ] } },
{ "type": "Feature", "properties": { "SCALERANK": 7, "NATSCALE": 20, "LABELRANK": 2, "FEATURECLA": "Populated place", "NAME": "Серпухов", "NAMEPAR": null, "NAMEALT": null, "NAMEASCII": "Serpukhov", "ADM0CAP": 0, "CAPIN": null, "WORLDCITY": 0, "MEGACITY": 0, "SOV0NAME": "Russia", "SOV_A3": "RUS", "ADM0NAME": "Russia", "ADM0_A3": "RUS", "ADM1NAME": "Moskovsskaya", "ISO_A2": "RU", "NOTE": null, "LATITUDE": 54.93038, "LONGITUDE": 37.430004, "POP_MAX": 135584, "POP_MIN": 128158, "POP_OTHER": 134299, "RANK_MAX": 9, "RANK_MIN": 9, "MEGANAME": null, "LS_NAME": "Serpukhov", "MAX_POP10": 135584, "MAX_POP20": 135584, "MAX_POP50": 0, "MAX_POP300": 0, "MAX_POP310": 0, "MAX_NATSCA": 20, "MIN_AREAKM": 46, "MAX_AREAKM": 46, "MIN_AREAMI": 18, "MAX_AREAMI": 18, "MIN_PERKM": 47, "MAX_PERKM": 47, "MIN_PERMI": 29, "MAX_PERMI": 29, "MIN_BBXMIN": 37.341667, "MAX_BBXMIN": 37.341667, "MIN_BBXMAX": 37.5, "MAX_BBXMAX": 37.5, "MIN_BBYMIN": 54.891667, "MAX_BBYMIN": 54.891667, "MIN_BBYMAX": 54.958333, "MAX_BBYMAX": 54.958333, "MEAN_BBXC": 37.412862, "MEAN_BBYC": 54.920652, "TIMEZONE": "Europe/Moscow", "UN_FID": 0, "POP1950": 0, "POP1955": 0, "POP1960": 0, "POP1965": 0, "POP1970": 0, "POP1975": 0, "POP1980": 0, "POP1985": 0, "POP1990": 0, "POP1995": 0, "POP2000": 0, "POP2005": 0, "POP2010": 0, "POP2015": 0, "POP2020": 0, "POP2025": 0, "POP2050": 0, "MIN_ZOOM": 6.7, "WIKIDATAID": "Q194067", "WOF_ID": 102003605, "CAPALT": 0, "NAME_EN": "Serpukhov", "NAME_DE": "Serpuchow", "NAME_ES": "Sérpujov", "NAME_FR": "Serpoukhov", "NAME_PT": "Serpukhov", "NAME_RU": "Серпухов", "NAME_ZH": "谢尔普霍夫", "LABEL": null, "NAME_AR": "سربوخوف", "NAME_BN": "সারপুখোভ", "NAME_EL": "Σέρπουκοφ", "NAME_HI": "सेरपुखोव", "NAME_HU": "Szerpuhov", "NAME_ID": "Serpukhov", "NAME_IT": "Serpuchov", "NAME_JA": "セルプホフ", "NAME_KO": "세르푸호프", "NAME_NL": "Serpoechov", "NAME_PL": "Sierpuchow", "NAME_SV": "Serpuchov", "NAME_TR": "Serpuhov", "NAME_VI": "Serpukhov", "NE_ID": 1159137291, "NAME_FA": "سرپوخوف", "NAME_HE": "סרפוחוב", "NAME_UK": "Серпухов", "NAME_UR": "سیرپوخوو", "NAME_ZHT": "謝爾普霍夫", "GEONAMESID": 496527, "FCLASS_ISO": null, "FCLASS_US": null, "FCLASS_FR": null, "FCLASS_RU": null, "FCLASS_ES": null, "FCLASS_CN": null, "FCLASS_TW": null, "FCLASS_IN": null, "FCLASS_NP": null, "FCLASS_PK": null, "FCLASS_DE": null, "FCLASS_GB": null, "FCLASS_BR": null, "FCLASS_IL": null, "FCLASS_PS": null, "FCLASS_SA": null, "FCLASS_EG": null, "FCLASS_MA": null, "FCLASS_PT": null, "FCLASS_AR": null, "FCLASS_JP": null, "FCLASS_KO": null, "FCLASS_VN": null, "FCLASS_TR": null, "FCLASS_ID": null, "FCLASS_PL": null, "FCLASS_GR": null, "FCLASS_IT": null, "FCLASS_NL": null, "FCLASS_SE": null, "FCLASS_BD": null, "FCLASS_UA": null, "FCLASS_TLC": null }, "geometry": { "type": "Point", "coordinates": [ 37.4300044, 54.9303797 ] } },
{ "type": "Feature", "properties": { "SCALERANK": 7, "NATSCALE": 20, "LABELRANK": 2, "FEATURECLA": "Populated place", "NAME": "Егорьевск", "NAMEPAR": null, "NAMEALT": null, "NAMEASCII": "Yegoryevsk", "ADM0CAP": 0, "CAPIN": null, "WORLDCITY": 0, "MEGACITY": 0, "SOV0NAME": "Russia", "SOV_A3": "RUS", "ADM0NAME": "Russia", "ADM0_A3": "RUS", "ADM1NAME": "Moskovsskaya", "ISO_A2": "RU", "NOTE": null, "LATITUDE": 55.384796, "LONGITUDE": 39.02939, "POP_MAX": 89795, "POP_MIN": 85200, "POP_OTHER": 89795, "RANK_MAX": 8, "RANK_MIN": 8, "MEGANAME": null, "LS_NAME": "Yegoryevsk", "MAX_POP10": 89795, "MAX_POP20": 89795, "MAX_POP50": 0, "MAX_POP300": 0, "MAX_POP310": 0, "MAX_NATSCA": 20, "MIN_AREAKM": 15, "MAX_AREAKM": 15, "MIN_AREAMI": 6, "MAX_AREAMI": 6, "MIN_PERKM": 24, "MAX_PERKM": 24, "MIN_PERMI": 15, "MAX_PERMI": 15, "MIN_BBXMIN": 39.008333, "MAX_BBXMIN": 39.008333, "MIN_BBXMAX": 39.083333, "MAX_BBXMAX": 39.083333, "MIN_BBYMIN": 55.358333, "MAX_BBYMIN": 55.358333, "MIN_BBYMAX": 55.4, "MAX_BBYMAX": 55.4, "MEAN_BBXC": 39.044444, "MEAN_BBYC": 55.378056, "TIMEZONE": "Europe/Moscow", "UN_FID": 0, "POP1950": 0, "POP1955": 0, "POP1960": 0, "POP1965": 0, "POP1970": 0, "POP1975": 0, "POP1980": 0, "POP1985": 0, "POP1990": 0, "POP1995": 0, "POP2000": 0, "POP2005": 0, "POP2010": 0, "POP2015": 0, "POP2020": 0, "POP2025": 0, "POP2050": 0, "MIN_ZOOM": 6.7, "WIKIDATAID": "Q135572", "WOF_ID": 102003411, "CAPALT": 0, "NAME_EN": "Yegoryevsk", "NAME_DE": "Jegorjewsk", "NAME_ES": "Yegórievsk", "NAME_FR": "Iegorievsk", "NAME_PT": "Yegoryevsk", "NAME_RU": "Егорьевск", "NAME_ZH": "叶戈里耶夫斯克", "LABEL": null, "NAME_AR": "ييغوريفسك", "NAME_BN": "ইয়েগোরাইএভস্ক", "NAME_EL": "Γεγκόριεφσκ", "NAME_HI": "येगोर्येव्स्क", "NAME_HU": "Jegorjevszkij", "NAME_ID": "Yegoryevsk", "NAME_IT": "Egor'evsk", "NAME_JA": "エゴリエフスク", "NAME_KO": "예고리옙스크", "NAME_NL": "Egorevsk", "NAME_PL": "Jegoriewsk", "NAME_SV": "Jegorjevsk", "NAME_TR": "Yegoryevsk", "NAME_VI": "Yegoryevsk", "NE_ID": 1159137273, "NAME_FA": "یگوریفسک", "NAME_HE": "יגורייבסק", "NAME_UK": "Єгор'євськ", "NAME_UR": "یگورے وسک", "NAME_ZHT": "葉戈里耶夫斯克", "GEONAMESID": 468250, "FCLASS_ISO": null, "FCLASS_US": null, "FCLASS_FR": null, "FCLASS_RU": null, "FCLASS_ES": null, "FCLASS_CN": null, "FCLASS_TW": null, "FCLASS_IN": null, "FCLASS_NP": null, "FCLASS_PK": null, "FCLASS_DE": null, "FCLASS_GB": null, "FCLASS_BR": null, "FCLASS_IL": null, "FCLASS_PS": null, "FCLASS_SA": null, "FCLASS_EG": null, "FCLASS_MA": null, "FCLASS_PT": null, "FCLASS_AR": null, "FCLASS_JP": null, "FCLASS_KO": null, "FCLASS_VN": null, "FCLASS_TR": null, "FCLASS_ID": null, "FCLASS_PL": null, "FCLASS_GR": null, "FCLASS_IT": null, "FCLASS_NL": null, "FCLASS_SE": null, "FCLASS_BD": null, "FCLASS_UA": null, "FCLASS_TLC": null }, "geometry": { "type": "Point", "coordinates": [ 39.02939, 55.3847964 ] } },
{ "type": "Feature", "properties": { "SCALERANK": 0, "NATSCALE": 600, "LABELRANK": 2, "FEATURECLA": "Admin-0 capital", "NAME": "Москва", "NAMEPAR": "Moskva", "NAMEALT": null, "NAMEASCII": "Moscow", "ADM0CAP": 1, "CAPIN": null, "WORLDCITY": 1, "MEGACITY": 1, "SOV0NAME": "Russia", "SOV_A3": "RUS", "ADM0NAME": "Russia", "ADM0_A3": "RUS", "ADM1NAME": "Moskva", "ISO_A2": "RU", "NOTE": null, "LATITUDE": 55.75411, "LONGITUDE": 37.613577, "POP_MAX": 10452000, "POP_MIN": 10452000, "POP_OTHER": 10585385, "RANK_MAX": 14, "RANK_MIN": 14, "MEGANAME": "Moskva", "LS_NAME": "Moscow", "MAX_POP10": 11029015, "MAX_POP20": 11030955, "MAX_POP50": 11547877, "MAX_POP300": 11547877, "MAX_POP310": 11547877, "MAX_NATSCA": 300, "MIN_AREAKM": 1434, "MAX_AREAKM": 1639, "MIN_AREAMI": 554, "MAX_AREAMI": 633, "MIN_PERKM": 875, "MAX_PERKM": 1135, "MIN_PERMI": 544, "MAX_PERMI": 705, "MIN_BBXMIN": 37.233333, "MAX_BBXMIN": 37.233333, "MIN_BBXMAX": 38.075401, "MAX_BBXMAX": 38.3, "MIN_BBYMIN": 55.341667, "MAX_BBYMIN": 55.533007, "MIN_BBYMAX": 56.075, "MAX_BBYMAX": 56.075, "MEAN_BBXC": 37.643636, "MEAN_BBYC": 55.754996, "TIMEZONE": null, "UN_FID": 426, "POP1950": 5356, "POP1955": 5749, "POP1960": 6170, "POP1965": 6622, "POP1970": 7106, "POP1975": 7623, "POP1980": 8136, "POP1985": 8580, "POP1990": 8987, "POP1995": 9201, "POP2000": 10016, "POP2005": 10416, "POP2010": 10452, "POP2015": 10495, "POP2020": 10524, "POP2025": 10526, "POP2050": 10526, "MIN_ZOOM": 1.7, "WIKIDATAID": "Q649", "WOF_ID": 102003033, "CAPALT": 0, "NAME_EN": "Moscow", "NAME_DE": "Moskau", "NAME_ES": "Moscú", "NAME_FR": "Moscou", "NAME_PT": "Moscovo", "NAME_RU": "Москва", "NAME_ZH": "莫斯科", "LABEL": null, "NAME_AR": "موسكو", "NAME_BN": "মস্কো", "NAME_EL": "Μόσχα", "NAME_HI": "मास्को", "NAME_HU": "Moszkva", "NAME_ID": "Moskwa", "NAME_IT": "Mosca", "NAME_JA": "モスクワ", "NAME_KO": "모스크바", "NAME_NL": "Moskou", "NAME_PL": "Moskwa", "NAME_SV": "Moskva", "NAME_TR": "Moskova", "NAME_VI": "Moskva", "NE_ID": 1159151585, "NAME_FA": "مسکو", "NAME_HE": "מוסקבה", "NAME_UK": "Москва", "NAME_UR": "ماسکو", "NAME_ZHT": "莫斯科", "GEONAMESID": 524901, "FCLASS_ISO": null, "FCLASS_US": null, "FCLASS_FR": null, "FCLASS_RU": null, "FCLASS_ES": null, "FCLASS_CN": null, "FCLASS_TW": null, "FCLASS_IN": null, "FCLASS_NP": null, "FCLASS_PK": null, "FCLASS_DE": null, "FCLASS_GB": null, "FCLASS_BR": null, "FCLASS_IL": null, "FCLASS_PS": null, "FCLASS_SA": null, "FCLASS_EG": null, "FCLASS_MA": null, "FCLASS_PT": null, "FCLASS_AR": null, "FCLASS_JP": null, "FCLASS_KO": null, "FCLASS_VN": null, "FCLASS_TR": null, "FCLASS_ID": null, "FCLASS_PL": null, "FCLASS_GR": null, "FCLASS_IT": null, "FCLASS_NL": null, "FCLASS_SE": null, "FCLASS_BD": null, "FCLASS_UA": null, "FCLASS_TLC": null }, "geometry": { "type": "Point", "coordinates": [ 37.613577, 55.75411 ] } }
]
}
